[{"OBJECT_NAME":"KUIPER-00137","OBJECT_ID":"2025-228S","EPOCH":"2026-03-09T22:00:01.999584","MEAN_MOTION":14.78448948,"ECCENTRICITY":0.00017475,"INCLINATION":51.9044,"RA_OF_ASC_NODE":344.5648,"ARG_OF_PERICENTER":152.1073,"MEAN_ANOMALY":242.2792,"EPHEMERIS_TYPE":0,"CLASSIFICATION_TYPE":"U","NORAD_CAT_ID":65963,"ELEMENT_SET_NO":999,"REV_AT_EPOCH":474,"BSTAR":-0.0032569559,"MEAN_MOTION_DOT":-0.00024103,"MEAN_MOTION_DDOT":0},{"OBJECT_NAME":"SL-8 DEB","OBJECT_ID":"1978-019E","EPOCH":"2026-03-09T20:37:14.806560","MEAN_MOTION":14.78388339,"ECCENTRICITY":0.00091167,"INCLINATION":74.0536,"RA_OF_ASC_NODE":328.7065,"ARG_OF_PERICENTER":155.0052,"MEAN_ANOMALY":326.3997,"EPHEMERIS_TYPE":0,"CLASSIFICATION_TYPE":"U","NORAD_CAT_ID":18501,"ELEMENT_SET_NO":999,"REV_AT_EPOCH":17313,"BSTAR":0.00066819074,"MEAN_MOTION_DOT":4.839e-5,"MEAN_MOTION_DDOT":0}]
